SL-16 R/B               
1 25400U 98043G   26043.82355186  .00000068  00000+0  47397-4 0  9995
2 25400  98.8210 357.0173 0010976  86.8211 273.4224 14.26043790435446
SL-16 R/B               
1 25407U 98045B   26043.78096257  .00000256  00000+0  15332-3 0  9992
2 25407  71.0085 233.9554 0005549  54.1386 306.0252 14.16186520423575
ISS (ZARYA)             
1 25544U 98067A   26043.60113347  .00008494  00000+0  16437-3 0  9998
2 25544  51.6314 196.3763 0011106  91.6743 268.5518 15.48566265552449
CZ-4B R/B               
1 25732U 99025C   26043.70071248  .00000049  00000+0  44311-4 0  9997
2 25732  98.6678  88.5681 0037966  57.9123  51.4445 14.18260235384627
OKEAN-O                 
1 25860U 99039A   26043.70965243  .00000684  00000+0  96689-4 0  9991
2 25860  97.9500 103.8482 0001846  83.6087 276.5335 14.80293800430698
SL-16 R/B               
1 25861U 99039B   26043.71312036  .00000599  00000+0  82851-4 0  9990
2 25861  98.0022 102.8398 0014318 343.8351  16.2403 14.81695737433164
DELTA 2 R/B             
1 25876U 99041E   26043.38083956  .00002337  00000+0  41338-3 0  9994
2 25876  51.7655  42.3496 0502255 273.6704  80.6949 14.11738282359454
HELIOS 1B               
1 25977U 99064A   26043.69260995  .00001623  00000+0  18511-3 0  9999
2 25977  98.1723 305.1982 0002217 109.7216 250.4238 14.87593147681545
TERRA                   
1 25994U 99068A   26043.79506852  .00000473  00000+0  10562-3 0  9998
2 25994  97.9648  98.1740 0001013 242.1317 227.1566 14.60987216391442
SL-16 R/B               
1 26070U 00006B   26043.71922017 -.00000225  00000+0 -90106-4 0  9995
2 26070  71.0030 150.3409 0018212 225.5595 134.4039 14.15819765345022
TITAN 4B R/B            
1 26474U 00047B   26043.78154633  .00003238  00000+0  20761-3 0  9990
2 26474  67.9893 110.5409 0037033  65.9767 294.5251 15.09349199389157
ENVISAT                 
1 27386U 02009A   26043.84967573  .00000137  00000+0  58209-4 0  9999
2 27386  98.3685 358.0452 0001335  88.1817 285.5696 14.39027510255600
