CCSDS_OMM_VERS = 2.0
CREATION_DATE  = 
ORIGINATOR     = 

OBJECT_NAME    = SL-16 R/B
OBJECT_ID      = 1998-043G
CENTER_NAME    = EARTH
REF_FRAME      = TEME
TIME_SYSTEM    = UTC
MEAN_ELEMENT_THEORY = SGP/SGP4

EPOCH          = 2026-02-12T19:45:54.880704
MEAN_MOTION    = 14.26043790
ECCENTRICITY   = .0010976
INCLINATION    = 98.8210
RA_OF_ASC_NODE = 357.0173
ARG_OF_PERICENTER = 86.8211
MEAN_ANOMALY   = 273.4224

EPHEMERIS_TYPE = 0
CLASSIFICATION_TYPE = U
NORAD_CAT_ID   = 25400
ELEMENT_SET_NO = 999
REV_AT_EPOCH   = 43544
BSTAR          = .47397E-4
MEAN_MOTION_DOT = .68E-6
MEAN_MOTION_DDOT = 0

CCSDS_OMM_VERS = 2.0
CREATION_DATE  = 
ORIGINATOR     = 

OBJECT_NAME    = SL-16 R/B
OBJECT_ID      = 1998-045B
CENTER_NAME    = EARTH
REF_FRAME      = TEME
TIME_SYSTEM    = UTC
MEAN_ELEMENT_THEORY = SGP/SGP4

EPOCH          = 2026-02-12T18:44:35.166048
MEAN_MOTION    = 14.16186520
ECCENTRICITY   = .0005549
INCLINATION    = 71.0085
RA_OF_ASC_NODE = 233.9554
ARG_OF_PERICENTER = 54.1386
MEAN_ANOMALY   = 306.0252

EPHEMERIS_TYPE = 0
CLASSIFICATION_TYPE = U
NORAD_CAT_ID   = 25407
ELEMENT_SET_NO = 999
REV_AT_EPOCH   = 42357
BSTAR          = .15332E-3
MEAN_MOTION_DOT = .256E-5
MEAN_MOTION_DDOT = 0

CCSDS_OMM_VERS = 2.0
CREATION_DATE  = 
ORIGINATOR     = 

OBJECT_NAME    = ISS (ZARYA)
OBJECT_ID      = 1998-067A
CENTER_NAME    = EARTH
REF_FRAME      = TEME
TIME_SYSTEM    = UTC
MEAN_ELEMENT_THEORY = SGP/SGP4

EPOCH          = 2026-02-12T14:25:37.931808
MEAN_MOTION    = 15.48566265
ECCENTRICITY   = .0011106
INCLINATION    = 51.6314
RA_OF_ASC_NODE = 196.3763
ARG_OF_PERICENTER = 91.6743
MEAN_ANOMALY   = 268.5518

EPHEMERIS_TYPE = 0
CLASSIFICATION_TYPE = U
NORAD_CAT_ID   = 25544
ELEMENT_SET_NO = 999
REV_AT_EPOCH   = 55244
BSTAR          = .16437E-3
MEAN_MOTION_DOT = .8494E-4
MEAN_MOTION_DDOT = 0

CCSDS_OMM_VERS = 2.0
CREATION_DATE  = 
ORIGINATOR     = 

OBJECT_NAME    = CZ-4B R/B
OBJECT_ID      = 1999-025C
CENTER_NAME    = EARTH
REF_FRAME      = TEME
TIME_SYSTEM    = UTC
MEAN_ELEMENT_THEORY = SGP/SGP4

EPOCH          = 2026-02-12T16:49:01.558272
MEAN_MOTION    = 14.18260235
ECCENTRICITY   = .0037966
INCLINATION    = 98.6678
RA_OF_ASC_NODE = 88.5681
ARG_OF_PERICENTER = 57.9123
MEAN_ANOMALY   = 51.4445

EPHEMERIS_TYPE = 0
CLASSIFICATION_TYPE = U
NORAD_CAT_ID   = 25732
ELEMENT_SET_NO = 999
REV_AT_EPOCH   = 38462
BSTAR          = .44311E-4
MEAN_MOTION_DOT = .49E-6
MEAN_MOTION_DDOT = 0

CCSDS_OMM_VERS = 2.0
CREATION_DATE  = 
ORIGINATOR     = 

OBJECT_NAME    = OKEAN-O
OBJECT_ID      = 1999-039A
CENTER_NAME    = EARTH
REF_FRAME      = TEME
TIME_SYSTEM    = UTC
MEAN_ELEMENT_THEORY = SGP/SGP4

EPOCH          = 2026-02-12T17:01:53.969952
MEAN_MOTION    = 14.80293800
ECCENTRICITY   = .0001846
INCLINATION    = 97.9500
RA_OF_ASC_NODE = 103.8482
ARG_OF_PERICENTER = 83.6087
MEAN_ANOMALY   = 276.5335

EPHEMERIS_TYPE = 0
CLASSIFICATION_TYPE = U
NORAD_CAT_ID   = 25860
ELEMENT_SET_NO = 999
REV_AT_EPOCH   = 43069
BSTAR          = .96689E-4
MEAN_MOTION_DOT = .684E-5
MEAN_MOTION_DDOT = 0

CCSDS_OMM_VERS = 2.0
CREATION_DATE  = 
ORIGINATOR     = 

OBJECT_NAME    = SL-16 R/B
OBJECT_ID      = 1999-039B
CENTER_NAME    = EARTH
REF_FRAME      = TEME
TIME_SYSTEM    = UTC
MEAN_ELEMENT_THEORY = SGP/SGP4

EPOCH          = 2026-02-12T17:06:53.599104
MEAN_MOTION    = 14.81695737
ECCENTRICITY   = .0014318
INCLINATION    = 98.0022
RA_OF_ASC_NODE = 102.8398
ARG_OF_PERICENTER = 343.8351
MEAN_ANOMALY   = 16.2403

EPHEMERIS_TYPE = 0
CLASSIFICATION_TYPE = U
NORAD_CAT_ID   = 25861
ELEMENT_SET_NO = 999
REV_AT_EPOCH   = 43316
BSTAR          = .82851E-4
MEAN_MOTION_DOT = .599E-5
MEAN_MOTION_DDOT = 0

CCSDS_OMM_VERS = 2.0
CREATION_DATE  = 
ORIGINATOR     = 

OBJECT_NAME    = DELTA 2 R/B
OBJECT_ID      = 1999-041E
CENTER_NAME    = EARTH
REF_FRAME      = TEME
TIME_SYSTEM    = UTC
MEAN_ELEMENT_THEORY = SGP/SGP4

EPOCH          = 2026-02-12T09:08:24.537984
MEAN_MOTION    = 14.11738282
ECCENTRICITY   = .05022553
INCLINATION    = 51.7655
RA_OF_ASC_NODE = 42.3496
ARG_OF_PERICENTER = 273.6704
MEAN_ANOMALY   = 80.6949

EPHEMERIS_TYPE = 0
CLASSIFICATION_TYPE = U
NORAD_CAT_ID   = 25876
ELEMENT_SET_NO = 999
REV_AT_EPOCH   = 35945
BSTAR          = .41337894E-3
MEAN_MOTION_DOT = .2337E-4
MEAN_MOTION_DDOT = 0

CCSDS_OMM_VERS = 2.0
CREATION_DATE  = 
ORIGINATOR     = 

OBJECT_NAME    = HELIOS 1B
OBJECT_ID      = 1999-064A
CENTER_NAME    = EARTH
REF_FRAME      = TEME
TIME_SYSTEM    = UTC
MEAN_ELEMENT_THEORY = SGP/SGP4

EPOCH          = 2026-02-12T16:37:21.499680
MEAN_MOTION    = 14.87593147
ECCENTRICITY   = .0002217
INCLINATION    = 98.1723
RA_OF_ASC_NODE = 305.1982
ARG_OF_PERICENTER = 109.7216
MEAN_ANOMALY   = 250.4238

EPHEMERIS_TYPE = 0
CLASSIFICATION_TYPE = U
NORAD_CAT_ID   = 25977
ELEMENT_SET_NO = 999
REV_AT_EPOCH   = 68154
BSTAR          = .18511E-3
MEAN_MOTION_DOT = .1623E-4
MEAN_MOTION_DDOT = 0

CCSDS_OMM_VERS = 2.0
CREATION_DATE  = 
ORIGINATOR     = 

OBJECT_NAME    = TERRA
OBJECT_ID      = 1999-068A
CENTER_NAME    = EARTH
REF_FRAME      = TEME
TIME_SYSTEM    = UTC
MEAN_ELEMENT_THEORY = SGP/SGP4

EPOCH          = 2026-02-12T19:04:53.920128
MEAN_MOTION    = 14.60987216
ECCENTRICITY   = .0001013
INCLINATION    = 97.9648
RA_OF_ASC_NODE = 98.1740
ARG_OF_PERICENTER = 242.1317
MEAN_ANOMALY   = 227.1566

EPHEMERIS_TYPE = 0
CLASSIFICATION_TYPE = U
NORAD_CAT_ID   = 25994
ELEMENT_SET_NO = 999
REV_AT_EPOCH   = 39144
BSTAR          = .10562E-3
MEAN_MOTION_DOT = .473E-5
MEAN_MOTION_DDOT = 0

CCSDS_OMM_VERS = 2.0
CREATION_DATE  = 
ORIGINATOR     = 

OBJECT_NAME    = SL-16 R/B
OBJECT_ID      = 2000-006B
CENTER_NAME    = EARTH
REF_FRAME      = TEME
TIME_SYSTEM    = UTC
MEAN_ELEMENT_THEORY = SGP/SGP4

EPOCH          = 2026-02-12T17:15:40.622688
MEAN_MOTION    = 14.15819765
ECCENTRICITY   = .0018212
INCLINATION    = 71.0030
RA_OF_ASC_NODE = 150.3409
ARG_OF_PERICENTER = 225.5595
MEAN_ANOMALY   = 134.4039

EPHEMERIS_TYPE = 0
CLASSIFICATION_TYPE = U
NORAD_CAT_ID   = 26070
ELEMENT_SET_NO = 999
REV_AT_EPOCH   = 34502
BSTAR          = -.90106E-4
MEAN_MOTION_DOT = -.225E-5
MEAN_MOTION_DDOT = 0

CCSDS_OMM_VERS = 2.0
CREATION_DATE  = 
ORIGINATOR     = 

OBJECT_NAME    = TITAN 4B R/B
OBJECT_ID      = 2000-047B
CENTER_NAME    = EARTH
REF_FRAME      = TEME
TIME_SYSTEM    = UTC
MEAN_ELEMENT_THEORY = SGP/SGP4

EPOCH          = 2026-02-12T18:45:25.602912
MEAN_MOTION    = 15.09349199
ECCENTRICITY   = .0037033
INCLINATION    = 67.9893
RA_OF_ASC_NODE = 110.5409
ARG_OF_PERICENTER = 65.9767
MEAN_ANOMALY   = 294.5251

EPHEMERIS_TYPE = 0
CLASSIFICATION_TYPE = U
NORAD_CAT_ID   = 26474
ELEMENT_SET_NO = 999
REV_AT_EPOCH   = 38915
BSTAR          = .20761E-3
MEAN_MOTION_DOT = .3238E-4
MEAN_MOTION_DDOT = 0

CCSDS_OMM_VERS = 2.0
CREATION_DATE  = 
ORIGINATOR     = 

OBJECT_NAME    = ENVISAT
OBJECT_ID      = 2002-009A
CENTER_NAME    = EARTH
REF_FRAME      = TEME
TIME_SYSTEM    = UTC
MEAN_ELEMENT_THEORY = SGP/SGP4

EPOCH          = 2026-02-12T20:23:31.983072
MEAN_MOTION    = 14.39027510
ECCENTRICITY   = .0001335
INCLINATION    = 98.3685
RA_OF_ASC_NODE = 358.0452
ARG_OF_PERICENTER = 88.1817
MEAN_ANOMALY   = 285.5696

EPHEMERIS_TYPE = 0
CLASSIFICATION_TYPE = U
NORAD_CAT_ID   = 27386
ELEMENT_SET_NO = 999
REV_AT_EPOCH   = 25560
BSTAR          = .58209E-4
MEAN_MOTION_DOT = .137E-5
MEAN_MOTION_DDOT = 0

